MEAN_MOTION;ECCENTRICITY;INCLINATION;RA_OF_ASC_NODE;ARG_OF_PERICENTER;MEAN_ANOMALY;BSTAR;MEAN_MOTION_DOT;MEAN_MOTION_DDOT;TYPE
14.32611911;0.0005276;45.0076;224.1005;48.795;311.335;6.0873E-5;2.6E-7;0;Orbcomm
14.32612112;0.00052;45.0076;220.4956;53.1107;307.0215;5.8958E-5;2.1E-7;0;Orbcomm
14.32612273;0.0005206;45.0076;218.8572;55.1429;304.9906;6.164E-5;2.8E-7;0;Orbcomm
14.32612718;0.0005144;45.0077;214.5969;60.3014;299.8344;6.5892E-5;4.0E-7;0;Orbcomm
14.32612758;0.0005143;45.0076;214.2692;60.7071;299.4288;6.6021E-5;4.0E-7;0;Orbcomm
14.326132;0.0005097;45.0077;210.6643;65.1166;295.021;6.9548E-5;5.0E-7;0;Orbcomm
14.32613295;0.000509;45.0077;209.6812;66.2885;293.8495;6.9313E-5;4.9E-7;0;Orbcomm
14.32613519;0.0005057;45.0077;207.0594;69.529;290.6098;6.7194E-5;4.4E-7;0;Orbcomm
14.32613685;0.0005054;45.0077;205.421;71.5714;288.5681;6.7544E-5;4.4E-7;0;Orbcomm
14.32614151;0.0005025;45.0077;200.5053;77.6892;282.4516;6.7717E-5;4.5E-7;0;Orbcomm
14.32614165;0.0004956;45.0078;197.228;82.0581;278.0828;5.7252E-5;1.6E-7;0;Orbcomm
14.32614513;0.000492;45.0078;192.6401;87.8482;272.2928;6.2232E-5;3.0E-7;0;Orbcomm
14.32614532;0.0004923;45.0078;192.3124;88.2252;271.9158;6.2443E-5;3.1E-7;0;Orbcomm
14.32614839;0.0004907;45.0078;186.4136;95.5035;264.6371;6.4223E-5;3.5E-7;0;Orbcomm
14.32615143;0.0004895;45.0079;181.8256;101.4063;258.7333;6.8431E-5;4.7E-7;0;Orbcomm
14.32615472;0.0004897;45.0079;177.2378;107.2131;252.9251;7.0243E-5;5.2E-7;0;Orbcomm
14.32615847;0.0004902;45.0079;172.6499;112.9625;247.1739;6.8981E-5;4.8E-7;0;Orbcomm
14.32616012;0.0004899;45.0079;170.3559;115.8538;244.2814;6.5827E-5;4.0E-7;0;Orbcomm
14.32616171;0.0004912;45.0079;168.7174;117.9643;242.1701;6.626E-5;4.1E-7;0;Orbcomm
14.32616437;0.0004926;45.0079;164.7848;122.8612;237.2708;5.8496E-5;2.0E-7;0;Orbcomm
14.32616481;0.0004932;45.0079;164.1295;123.6591;236.4726;5.7951E-5;1.8E-7;0;Orbcomm
14.32616797;0.0004959;45.0078;159.5416;129.3473;230.7813;5.2748E-5;4.0E-8;0;Orbcomm
14.32616896;0.0004965;45.0078;158.2307;130.9166;229.2111;5.2127E-5;2.0E-8;0;Orbcomm
14.32617237;0.0005003;45.0077;153.9704;136.1507;223.9737;5.6316E-5;1.4E-7;0;Orbcomm
14.32617672;0.0005033;45.0076;149.3825;141.6297;218.4908;6.7788E-5;4.5E-7;0;Orbcomm
14.32617855;0.0005058;45.0076;146.7606;144.829;215.289;7.0522E-5;5.3E-7;0;Orbcomm
14.32617931;0.0005071;45.0076;145.7775;145.9569;214.1603;7.1846E-5;5.6E-7;0;Orbcomm
14.3261836;0.0005124;45.0075;140.5341;152.0449;208.0673;7.8951E-5;7.6E-7;0;Orbcomm
14.3261836;0.0005124;45.0075;140.5341;152.0449;208.0673;7.8951E-5;7.6E-7;0;Orbcomm
14.32618822;0.0005198;45.0075;133.9797;159.5346;200.5709;7.4329E-5;6.3E-7;0;Orbcomm
14.32618882;0.000522;45.0075;132.6688;161.0225;199.0817;7.111E-5;5.4E-7;0;Orbcomm
14.32619099;0.0005248;45.0075;129.3917;164.7102;195.3903;6.5696E-5;4.0E-7;0;Orbcomm
14.32619216;0.0005291;45.0075;126.77;167.5766;192.5212;5.9116E-5;2.2E-7;0;Orbcomm
14.3261939;0.0005315;45.0076;124.4759;170.1705;189.9246;5.6827E-5;1.5E-7;0;Orbcomm
14.32619547;0.0005359;45.0076;121.5265;173.3573;186.7345;4.9942E-5;-4.0E-8;0;Orbcomm
14.32619648;0.0005379;45.0076;119.8879;175.1981;184.8918;4.8366E-5;-8.0E-8;0;Orbcomm
14.32620062;0.0005442;45.0076;115.2998;180.1562;179.9284;5.3733E-5;7.0E-8;0;Orbcomm
14.32620176;0.0005464;45.0076;113.9889;181.5334;178.5497;5.5219E-5;1.1E-7;0;Orbcomm
14.32620481;0.00055;45.0077;110.7117;185.0501;175.029;6.2681E-5;3.1E-7;0;Orbcomm
14.32620798;0.000554;45.0076;107.7622;188.0584;172.0174;7.038E-5;5.2E-7;0;Orbcomm
14.3262094;0.000556;45.0077;105.7958;190.1629;169.9106;7.2057E-5;5.7E-7;0;Orbcomm
14.3262126;0.0005596;45.0076;103.5018;192.4504;167.6205;8.0346E-5;8.0E-7;0;Orbcomm
14.32621594;0.0005642;45.0077;100.5521;195.5042;164.5632;8.5675E-5;9.4E-7;0;Orbcomm
14.32621808;0.0005665;45.0077;98.9136;197.1013;162.9643;8.9117E-5;1.04E-6;0;Orbcomm
14.3262229;0.000571;45.0078;93.9977;202.008;158.0522;8.8726E-5;1.03E-6;0;Orbcomm
14.32622899;0.0005776;45.0081;86.7877;209.0947;150.9578;7.8269E-5;7.4E-7;0;Orbcomm
14.3262285;0.0005746;45.0081;85.8047;209.9399;150.1119;7.1742E-5;5.6E-7;0;Orbcomm
14.32623104;0.0005834;45.0083;82.1997;213.5688;146.4789;6.4548E-5;3.6E-7;0;Orbcomm
14.32623137;0.0005868;45.0084;80.2334;215.3956;144.6501;5.6948E-5;1.6E-7;0;Orbcomm
14.32623285;0.0005892;45.0085;77.6117;217.9609;142.0823;5.433E-5;8.0E-8;0;Orbcomm
14.32623341;0.000591;45.0087;75.6456;219.8168;140.2245;5.0427E-5;-2.0E-8;0;Orbcomm
14.32623623;0.0005977;45.0089;68.1082;226.9338;133.1008;4.6753E-5;-1.2E-7;0;Orbcomm
14.32623693;0.0005988;45.0089;66.1421;228.7047;131.3285;4.6466E-5;-1.3E-7;0;Orbcomm
14.32624013;0.0006056;45.0091;59.5878;234.7926;125.2353;4.6907E-5;-1.2E-7;0;Orbcomm
14.32624064;0.0006057;45.0091;58.9324;235.3654;124.6621;4.7378E-5;-1.1E-7;0;Orbcomm
14.32624336;0.0006079;45.0092;54.6721;239.2102;120.8146;4.7971E-5;-9.0E-8;0;Orbcomm
14.32624757;0.0006101;45.0093;49.7564;243.6052;116.4168;4.9747E-5;-4.0E-8;0;Orbcomm
14.32625299;0.0006109;45.0096;44.8408;247.9054;112.1143;5.5938E-5;1.3E-7;0;Orbcomm
14.32625436;0.0006108;45.0096;43.5301;249.1534;110.8658;5.789E-5;1.8E-7;0;Orbcomm
14.32625536;0.000611;45.0096;42.8746;249.707;110.312;6.0462E-5;2.5E-7;0;Orbcomm
14.32625985;0.0006114;45.0098;38.2868;253.7775;106.2399;6.5959E-5;4.0E-7;0;Orbcomm
14.32626224;0.0006121;45.0099;35.3374;256.3658;103.6507;6.713E-5;4.4E-7;0;Orbcomm
14.32626364;0.0006107;45.0099;33.6989;257.8783;102.1379;6.9414E-5;5.0E-7;0;Orbcomm
14.32626604;0.0006105;45.01;30.7496;260.4374;99.5782;7.1937E-5;5.7E-7;0;Orbcomm
14.32626892;0.0006087;45.01;26.1618;264.5624;95.4527;7.2026E-5;5.7E-7;0;Orbcomm
14.3262695;0.0006078;45.01;24.8511;265.7657;94.2495;7.1316E-5;5.5E-7;0;Orbcomm
14.32627124;0.0006063;45.01;21.2464;268.9642;91.051;6.7081E-5;4.3E-7;0;Orbcomm
14.32627225;0.0006052;45.01;19.9356;270.1539;89.8614;6.7802E-5;4.5E-7;0;Orbcomm
14.32627428;0.0006038;45.01;16.6586;272.9927;87.0228;6.428E-5;3.6E-7;0;Orbcomm
14.3262771;0.0006011;45.0099;12.3985;276.7472;83.269;6.0067E-5;2.4E-7;0;Orbcomm
14.32627713;0.000601;45.0099;12.0708;277.0252;82.991;5.8644E-5;2.0E-7;0;Orbcomm
14.32627984;0.0005981;45.0098;7.8106;280.7768;79.2405;5.4069E-5;8.0E-8;0;Orbcomm
14.3262809;0.000597;45.0098;6.1722;282.3166;77.7011;5.3207E-5;5.0E-8;0;Orbcomm
14.32628282;0.0005954;45.0098;3.2228;284.8525;75.1662;5.1574E-5;1.0E-8;0;Orbcomm
14.32628388;0.0005935;45.0098;1.5843;286.328;73.6913;5.1576E-5;1.0E-8;0;Orbcomm
14.32628643;0.0005908;45.0098;358.3072;289.1544;70.8663;5.3409E-5;6.0E-8;0;Orbcomm
14.32628684;0.00059;45.0098;357.6518;289.7713;70.2497;5.3973E-5;7.0E-8;0;Orbcomm
14.32629013;0.0005875;45.0097;354.3747;292.6313;67.3911;6.0736E-5;2.6E-7;0;Orbcomm
14.3262905;0.0005864;45.0097;353.7193;293.1678;66.855;5.9912E-5;2.4E-7;0;Orbcomm
14.3262926;0.0005837;45.0097;352.0808;294.6292;65.3946;6.5614E-5;3.9E-7;0;Orbcomm
14.32629542;0.0005805;45.0096;348.476;297.8334;62.1923;6.978E-5;5.1E-7;0;Orbcomm
14.3262981;0.0005768;45.0096;345.8544;300.1557;59.8718;7.5295E-5;6.6E-7;0;Orbcomm
14.32629887;0.000574;45.0095;343.8881;301.8609;58.1678;7.2309E-5;5.8E-7;0;Orbcomm
14.3263015;0.0005675;45.0094;339.6279;305.6767;54.3551;6.87E-5;4.8E-7;0;Orbcomm
14.32630182;0.0005666;45.0094;338.9725;306.2222;53.81;6.83E-5;4.7E-7;0;Orbcomm
14.32630401;0.0005601;45.0093;334.7123;310.0026;50.0328;6.0064E-5;2.4E-7;0;Orbcomm
14.32630411;0.0005595;45.0093;334.3846;310.303;49.7327;5.9508E-5;2.3E-7;0;Orbcomm
14.32630768;0.0005502;45.0091;328.8134;315.3667;44.6736;5.1832E-5;2.0E-8;0;Orbcomm
14.32630986;0.000546;45.0091;326.1916;317.6904;42.3521;5.2381E-5;3.0E-8;0;Orbcomm
14.32631432;0.0005361;45.009;320.6204;322.7662;37.2812;5.4884E-5;1.0E-7;0;Orbcomm
14.32631457;0.0005357;45.009;320.2927;323.1012;36.9465;5.5346E-5;1.1E-7;0;Orbcomm
14.32631528;0.0005339;45.0089;319.6373;323.6659;36.3824;5.6263E-5;1.4E-7;0;Orbcomm
14.3263196;0.0005277;45.0089;315.7046;327.3761;32.6758;6.6983E-5;4.3E-7;0;Orbcomm
14.3263204;0.0005262;45.0089;315.0491;327.9749;32.0777;6.8559E-5;4.7E-7;0;Orbcomm
14.32632465;0.000519;45.0089;310.7888;332.0144;28.0423;7.594E-5;6.8E-7;0;Orbcomm
14.32632779;0.0005113;45.0088;306.5284;336.0619;23.9989;7.7132E-5;7.1E-7;0;Orbcomm
14.32632802;0.0005115;45.0088;306.2007;336.4328;23.6283;7.7717E-5;7.3E-7;0;Orbcomm
14.32633235;0.0005024;45.0088;301.6126;340.8455;19.2201;8.0769E-5;8.1E-7;0;Orbcomm
14.32633256;0.0005018;45.0088;301.2849;341.1646;18.9014;8.0045E-5;7.9E-7;0;Orbcomm
14.32633651;0.0004927;45.0087;296.6968;345.6462;14.4243;7.5518E-5;6.6E-7;0;Orbcomm
14.32633962;0.0004859;45.0087;293.092;349.213;10.8611;7.0224E-5;5.2E-7;0;Orbcomm
14.32634062;0.0004844;45.0087;292.1089;350.2499;9.8252;6.9514E-5;5.0E-7;0;Orbcomm
14.3263443;0.0004758;45.0086;287.8486;354.5256;5.5538;6.397E-5;3.5E-7;0;Orbcomm
14.32634464;0.0004752;45.0086;287.5209;354.8558;5.2239;6.3781E-5;3.4E-7;0;Orbcomm
14.32634878;0.0004653;45.0086;282.6051;359.8506;0.2338;6.0245E-5;2.5E-7;0;Orbcomm
14.32634878;0.0004653;45.0086;282.6051;359.8506;0.2338;6.0245E-5;2.5E-7;0;Orbcomm
14.32635234;0.0004559;45.0085;278.0171;4.5097;355.579;6.0928E-5;2.6E-7;0;Orbcomm
14.32635432;0.0004513;45.0085;275.723;6.8046;353.286;6.4035E-5;3.5E-7;0;Orbcomm
14.32635483;0.0004489;45.0085;274.7398;7.8918;352.1998;6.3246E-5;3.3E-7;0;Orbcomm
14.32635533;0.0004462;45.0084;273.429;9.2523;350.8405;6.2257E-5;3.0E-7;0;Orbcomm
14.32635681;0.0004405;45.0084;270.8072;11.9552;348.1398;6.2858E-5;3.2E-7;0;Orbcomm
14.3263577;0.0004368;45.0084;268.841;14.1017;345.995;6.2958E-5;3.2E-7;0;Orbcomm
14.32635934;0.0004301;45.0084;265.8914;17.2484;342.8507;6.3133E-5;3.2E-7;0;Orbcomm
14.32635931;0.0004293;45.0084;265.5637;17.6207;342.4787;6.2116E-5;3.0E-7;0;Orbcomm
14.32636005;0.0004273;45.0084;264.2529;19.0785;341.0221;6.2715E-5;3.1E-7;0;Orbcomm
14.32636252;0.0004186;45.0083;259.9926;23.7969;336.307;6.1111E-5;2.7E-7;0;Orbcomm
14.32636273;0.000418;45.0083;259.6649;24.168;335.9362;6.0901E-5;2.6E-7;0;Orbcomm
14.32636575;0.0004097;45.0083;255.0769;29.3779;330.7297;5.7152E-5;1.6E-7;0;Orbcomm
14.32636597;0.0004092;45.0083;254.7492;29.7361;330.3717;5.6406E-5;1.4E-7;0;Orbcomm
14.32636905;0.0004011;45.0083;250.1613;35.0636;325.0474;5.1334E-5;0;0;Orbcomm
